DMSP 5D-3 F16 (USA 172) 
1 28054U 03048A   26204.88460043 -.00000005  00000+0  20865-4 0  9991
2 28054  98.9887 228.9543 0007880  49.7580  50.9208 14.14485028174675
METEOSAT-9 (MSG-2)      
1 28912U 05049B   26203.95837882  .00000120  00000+0  00000+0 0  9994
2 28912   9.4401  53.8093 0002491   0.9883 276.6377  1.00276551  7354
DMSP 5D-3 F17 (USA 191) 
1 29522U 06050A   26204.86879593  .00000036  00000+0  40803-4 0  9997
2 29522  98.7392 210.6903 0009260 316.6337  43.4107 14.14996843 17610
FENGYUN 3A              
1 32958U 08026A   26204.55770245  .00000047  00000+0  43044-4 0  9991
2 32958  98.6886 144.7119 0009313  29.8116 330.3589 14.19577818940560
EWS-G3 (GOES 14)        
1 35491U 09033A   26204.84982512 -.00000355  00000+0  00000+0 0  9992
2 35491   1.7814  82.5872 0002260  39.8904 244.6383  1.00094314  6952
DMSP 5D-3 F18 (USA 210) 
1 35951U 09057A   26204.84243904  .00000230  00000+0  14220-3 0  9998
2 35951  98.9064 185.5368 0011694 141.9003 218.2999 14.14915848864773
EWS-G2 (GOES 15)        
1 36411U 10008A   26204.83873171  .00000026  00000+0  00000+0 0  9992
2 36411   1.3760  82.3633 0005659  52.7733 171.6158  1.00272421 60005
COMS 1                  
1 36744U 10032A   26204.52695139 -.00000133  00000+0  00000+0 0  9990
2 36744   4.8958  74.9166 0011539  15.4491 329.5146  0.99165960 51445
FENGYUN 3B              
1 37214U 10059A   26204.87455275 -.00000266  00000+0 -11438-3 0  9994
2 37214  98.9605 251.0404 0023244  83.3055  25.3130 14.14846689812614
SUOMI NPP               
1 37849U 11061A   26204.85224000  .00000042  00000+0  41008-4 0  9997
2 37849  98.7956 145.4793 0001203 179.0162 181.1016 14.19523954763649
METEOSAT-10 (MSG-3)     
1 38552U 12035B   26204.82620419 -.00000006  00000+0  00000+0 0  9995
2 38552   4.7558  60.8355 0001515  21.2445 156.9631  1.00273470 51226
METOP-B                 
1 38771U 12049A   26204.86322889  .00000072  00000+0  52935-4 0  9998
2 38771  98.6483 255.6267 0001454 212.1917 147.9172 14.21448137718479
INSAT-3D                
1 39216U 13038B   26204.85181845 -.00000336  00000+0  00000+0 0  9991
2 39216   2.0179  82.0776 0001165  44.6693 250.9956  1.00272459 47442
FENGYUN 3C              
1 39260U 13052A   26204.86461207  .00000058  00000+0  50829-4 0  9999
2 39260  98.5015 177.0606 0013444 278.9526  81.0126 14.15762233663751
METEOR-M 2              
1 40069U 14037A   26204.88906484  .00000063  00000+0  47956-4 0  9998
2 40069  98.5143 179.3323 0004679 297.2364  62.8337 14.21471365624531
HIMAWARI-8              
1 40267U 14060A   26204.85398513 -.00000271  00000+0  00000+0 0  9995
2 40267   0.0372 272.3317 0001405 244.7357 232.5899  1.00270487 43127
FENGYUN 2G              
1 40367U 14090A   26204.84886300 -.00000303  00000+0  00000+0 0  9990
2 40367   5.7293  72.3691 0003681 170.5844 103.7708  1.00278168 42367
METEOSAT-11 (MSG-4)     
1 40732U 15034A   26204.75677458  .00000064  00000+0  00000+0 0  9990
2 40732   3.2898  70.8709 0001949 355.8104 156.5352  1.00274533  7580
ELEKTRO-L 2             
1 41105U 15074A   26204.82334419 -.00000118  00000+0  00000+0 0  9995
2 41105   6.7838  70.0693 0000590 232.5473 280.8579  1.00272709 38873
SENTINEL-3A             
1 41335U 16011A   26204.82433404  .00000151  00000+0  80335-4 0  9996
2 41335  98.6230 271.6781 0001287  86.8623 273.2705 14.26736224543284
INSAT-3DR               
1 41752U 16054A   26204.84081174 -.00000072  00000+0  00000+0 0  9990
2 41752   0.0907  88.9075 0010242 180.2568  49.0763  1.00271827 36188
HIMAWARI-9              
1 41836U 16064A   26204.28378921  .00000000  00000+0  00000+0 0  9991
2 41836   0.0156  51.3156 0002529 127.9715   4.6463  1.00270213 35576
GOES 16                 
1 41866U 16071A   26204.63740390 -.00000086  00000+0  00000+0 0  9999
2 41866   0.4244  85.4160 0000760  70.5638 270.1499  1.00271941 35462
FENGYUN 4A              
1 41882U 16077A   26204.85069178 -.00000355  00000+0  00000+0 0  9994
2 41882   2.4132  79.8624 0008025 158.5716 132.9767  1.00264567 35296
CYGFM05                 
1 41884U 16078A   26204.84394743  .00023937  00000+0  30627-3 0  9997
2 41884  34.9578  17.5661 0005331 133.1527 226.9644 15.58196380534475
CYGFM04                 
1 41885U 16078B   26204.75882749  .00034000  00000+0  35343-3 0  9999
2 41885  34.9334 343.8944 0004510 181.9711 178.0998 15.63529208534721
CYGFM02                 
1 41886U 16078C   26204.74895777  .00040786  00000+0  36997-3 0  9998
2 41886  34.9412 337.3590 0005224 182.6208 177.4493 15.66900011534907
CYGFM01                 
1 41887U 16078D   26204.81604113  .00025008  00000+0  31115-3 0  9996
2 41887  34.9408  18.5011 0005130 125.7038 234.4165 15.58927621534428
CYGFM08                 
1 41888U 16078E   26204.77354176  .00030945  00000+0  34329-3 0  9999
2 41888  34.9441 357.3501 0006206 162.7896 197.3041 15.61872708534690
CYGFM07                 
1 41890U 16078G   26204.73026109  .00030685  00000+0  33913-3 0  9999
2 41890  34.9456 345.9476 0004992 180.3058 179.7665 15.61979452534712
CYGFM03                 
1 41891U 16078H   26204.76545689  .00031282  00000+0  34590-3 0  9998
2 41891  34.9412 347.6403 0004517 164.3433 195.7433 15.61966740534690
FENGYUN 3D              
1 43010U 17072A   26204.86463448 -.00000173  00000+0 -59980-4 0  9999
2 43010  99.0154 179.9540 0000994 356.4747   3.6422 14.19744823450190
NOAA 20 (JPSS-1)        
1 43013U 17073A   26204.79514477  .00000037  00000+0  38454-4 0  9994
2 43013  98.7772 143.9337 0001662 114.7848 245.3501 14.19517687449669
GOES 17                 
1 43226U 18022A   26204.59457845 -.00000179  00000+0  00000+0 0  9997
2 43226   1.0278  85.1400 0000716  57.4315 283.3017  1.00271882 30785
SENTINEL-3B             
1 43437U 18039A   26204.44684152  .00000073  00000+0  48155-4 0  9996
2 43437  98.6229 271.4552 0001317 117.9651 242.1662 14.26738084429299
FENGYUN 2H              
1 43491U 18050A   26204.85407096 -.00000123  00000+0  00000+0 0  9993
2 43491   3.1234  78.6433 0002067 123.0193 126.3794  1.00267365 29802
METOP-C                 
1 43689U 18087A   26204.81024470  .00000067  00000+0  50335-4 0  9996
2 43689  98.6623 263.7403 0002069  82.6177 277.5235 14.21504535400037
GEO-KOMPSAT-2A          
1 43823U 18100A   26204.85155845 -.00000339  00000+0  00000+0 0  9999
2 43823   0.0155 101.4134 0002521 357.7709 277.2109  1.00270840 27992
METEOR-M2 2             
1 44387U 19038A   26204.91304929 -.00000037  00000+0  37861-5 0  9998
2 44387  98.9174 192.7445 0000148 340.4931  19.6241 14.24374210366528
ARKTIKA-M 1             
1 47719U 21016A   26198.89672402 -.00000295  00000+0  00000+0 0  9997
2 47719  63.2571  53.1467 7298516 270.0868  14.5016  2.00610215 39409
FENGYUN 3E              
1 49008U 21062A   26204.84446164  .00000210  00000+0  11961-3 0  9996
2 49008  98.7514 207.8452 0001796  24.7438 335.3824 14.19907416261780
GOES 18                 
1 51850U 22021A   26204.80878155  .00000000  00000+0  00000+0 0  9990
2 51850   0.0171  78.0904 0000557  68.3495 309.2539  1.00271333  6962
NOAA 21 (JPSS-2)        
1 54234U 22150A   26204.82730373  .00000009  00000+0  24742-4 0  9996
2 54234  98.7059 143.0012 0002922  89.2386 270.9125 14.19542073191744
METEOSAT-12 (MTG-I1)    
1 54743U 22170C   26204.88030727 -.00000004  00000+0  00000+0 0  9997
2 54743   0.7337  21.1444 0004190  81.2138 155.7518  1.00270266 13345
TIANMU-1 03             
1 55973U 23039A   26204.83644155  .00017205  00000+0  32801-3 0  9997
2 55973  97.5249  20.2712 0001859 351.5631   8.5587 15.48241505186506
TIANMU-1 04             
1 55974U 23039B   26204.81135807  .00016804  00000+0  31346-3 0  9992
2 55974  97.5188  19.4024 0002198 337.2477  22.8676 15.48873477186519
TIANMU-1 05             
1 55975U 23039C   26204.81900546  .00016208  00000+0  30998-3 0  9993
2 55975  97.5230  19.8547 0002241  24.1157 336.0197 15.48162696186486
TIANMU-1 06             
1 55976U 23039D   26204.81712205  .00016533  00000+0  30959-3 0  9995
2 55976  97.5239  20.5260 0002247  12.0814 348.0490 15.48767140186517
FENGYUN 3G              
1 56232U 23055A   26204.90088942  .00026880  00000+0  41117-3 0  9997
2 56232  49.9911 156.6292 0006801  98.0148 262.1592 15.54111589185718
METEOR-M2 3             
1 57166U 23091A   26204.84560904 -.00000017  00000+0  11389-4 0  9994
2 57166  98.6068 259.0696 0005031  70.9740 289.1984 14.24049396159735
TIANMU-1 07             
1 57399U 23101A   26204.85569035  .00006824  00000+0  23610-3 0  9999
2 57399  97.2578 254.6865 0003067  46.5103 313.6393 15.30193171167254
TIANMU-1 08             
1 57400U 23101B   26204.82223845  .00006965  00000+0  24090-3 0  9994
2 57400  97.2567 254.4192 0003726  22.1101 338.0300 15.30195727167243
TIANMU-1 09             
1 57401U 23101C   26204.87015596  .00007106  00000+0  24537-3 0  9996
2 57401  97.2524 253.8631 0003661  44.4430 315.7104 15.30240314167256
TIANMU-1 10             
1 57402U 23101D   26204.83845078  .00007148  00000+0  24698-3 0  9993
2 57402  97.2604 254.9201 0004834  29.7640 330.3875 15.30213249167247
FENGYUN 3F              
1 57490U 23111A   26204.82748892  .00000018  00000+0  28776-4 0  9997
2 57490  98.6820 274.1502 0001108  75.0063 285.1236 14.19944462154069
ARKTIKA-M 2             
1 58584U 23198A   26202.15670971  .00000142  00000+0  00000+0 0  9996
2 58584  63.2169 150.5623 6912649 267.3229  18.7284  2.00607150 19000
TIANMU-1 11             
1 58645U 23205A   26204.87723641  .00006108  00000+0  23079-3 0  9990
2 58645  97.3450 225.8653 0007319 223.9449 136.1209 15.27330737143123
TIANMU-1 12             
1 58646U 23205B   26203.67156534  .00004112  00000+0  15785-3 0  9997
2 58646  97.3438 224.4213 0006487 209.2071 150.8807 15.27003015142920
TIANMU-1 13             
1 58647U 23205C   26204.81854919  .00006077  00000+0  23085-3 0  9991
2 58647  97.3467 225.8341 0006816 179.6924 180.4321 15.27156275143099
